STARLINK-38033          
1 69739U 26150A   26193.25002315 -.00106588  00000+0 -56109-3 0  9990
2 69739  97.2848  31.4432 0001399  88.1343 351.6875 15.80871648  2825
STARLINK-38076          
1 69740U 26150B   26193.25002315 -.00168874  00000+0 -11504-2 0  9997
2 69740  97.2841  31.4231 0000881  78.2594 315.4066 15.75260030  2821
STARLINK-38074          
1 69741U 26150C   26193.25002315 -.00113493  00000+0 -59778-3 0  9991
2 69741  97.2849  31.4497 0001323  80.3880  14.1079 15.80878284  2827
STARLINK-38041          
1 69742U 26150D   26193.25002315 -.00108724  00000+0 -57231-3 0  9995
2 69742  97.2849  31.4518 0001082 107.7672 350.6757 15.80879410  2820
STARLINK-38087          
1 69743U 26150E   26193.25002315 -.00121639  00000+0 -64126-3 0  9997
2 69743  97.2846  31.4527 0001474  89.8273  13.2613 15.80880135  2829
STARLINK-38078          
1 69744U 26150F   26193.25002315 -.00122819  00000+0 -64755-3 0  9997
2 69744  97.2848  31.4543 0001178  82.8315  24.5283 15.80881970  2827
STARLINK-38047          
1 69745U 26150G   26193.25002315 -.00104554  00000+0 -55017-3 0  9995
2 69745  97.2847  31.4560 0001209  84.9572  26.9578 15.80875045  2828
STARLINK-38046          
1 69746U 26150H   26193.25002315 -.00117423  00000+0 -61857-3 0  9994
2 69746  97.2848  31.4618 0001352  92.4981  30.3389 15.80885780  2827
STARLINK-38067          
1 69747U 26150J   26193.25002315 -.00185931  00000+0 -12690-2 0  9994
2 69747  97.2848  31.4524 0001001  91.6625   8.0037 15.75262036  2820
STARLINK-37988          
1 69748U 26150K   26193.25002315 -.00102936  00000+0 -69683-3 0  9994
2 69748  97.2847  31.4559 0001290  81.6350  28.0451 15.75215200  2825
STARLINK-37987          
1 69749U 26150L   26193.25002315 -.01848154  00000+0 -12831-1 0  9996
2 69749  97.2849  31.4654 0001839  77.2544  54.3104 15.77415978  2822
STARLINK-38037          
1 69750U 26150M   26193.25002315 -.00095161  00000+0 -50013-3 0  9995
2 69750  97.2846  31.4727 0001322 105.3792  43.4610 15.80875094  2821
STARLINK-38049          
1 69751U 26150N   26193.25002315 -.00115117  00000+0 -60645-3 0  9992
2 69751  97.2845  31.4755 0001298  97.7347  56.8915 15.80878739  2829
STARLINK-38029          
1 69752U 26150P   26193.25002315 -.00106923  00000+0 -56282-3 0  9990
2 69752  97.2845  31.4898 0001267  94.2870  93.0427 15.80874204  2821
STARLINK-37965          
1 69753U 26150Q   26193.25002315 -.01952395  00000+0 -13123-1 0  9999
2 69753  97.2844  31.4864 0001910  84.8725 100.6790 15.78318541  2825
STARLINK-38048          
1 69754U 26150R   26193.25002315 -.00081305  00000+0 -42676-3 0  9990
2 69754  97.2843  31.4903 0001165  77.1270 112.3159 15.80863449  2825
STARLINK-38006          
1 69755U 26150S   26193.25002315 -.00096045  00000+0 -50499-3 0  9990
2 69755  97.2840  31.4971 0000962  78.4692 126.5792 15.80869492  2828
STARLINK-38036          
1 69756U 26150T   26193.25002315 -.00091194  00000+0 -47917-3 0  9992
2 69756  97.2843  31.5016 0001274  90.5571 122.1719 15.80869050  2822
STARLINK-38058          
1 69757U 26150U   26193.25002315 -.00079722  00000+0 -41829-3 0  9992
2 69757  97.2842  31.5021 0001108  88.0499 126.1176 15.80867281  2820
STARLINK-38066          
1 69758U 26150V   26193.25002315 -.00109940  00000+0 -57903-3 0  9999
2 69758  97.2844  31.5018 0001452  81.0319 133.9938 15.80869709  2824
STARLINK-38035          
1 69759U 26150W   26193.25002315 -.00155638  00000+0 -82261-3 0  9990
2 69759  97.2844  31.5025 0001186  76.8488 138.8481 15.80915056  2820
STARLINK-38056          
1 69760U 26150X   26193.25002315 -.00105772  00000+0 -55658-3 0  9996
2 69760  97.2839  31.5110 0001330  87.0769 148.3101 15.80878051  2826
STARLINK-38069          
1 69761U 26150Y   26193.25002315 -.00106442  00000+0 -56030-3 0  9997
2 69761  97.2837  31.5200 0001509  88.7900 166.2664 15.80871935  2825
STARLINK-38019          
1 69762U 26150Z   26193.25002315 -.00334100  00000+0 -23174-2 0  9994
2 69762  97.2838  31.5160 0001385  60.0440 185.5973 15.75291132  2822
KUIPER-00258            
1 69763U 26151A   26193.25002315 -.00003080  00000+0 -76855-4 0  9992
2 69763  51.8671 194.7579 0011568 158.5495  74.6687 15.35422020  1925
KUIPER-00526            
1 69764U 26151B   26193.25002315 -.00008965  00000+0 -23117-3 0  9992
2 69764  51.8761 194.6321 0006104 129.1005 166.3472 15.37285275  1686
KUIPER-00558            
1 69765U 26151C   26193.25002315 -.00008389  00000+0 -21913-3 0  9995
2 69765  51.8754 194.6671 0007647 140.6934 137.7826 15.36776060  2164
KUIPER-00569            
1 69766U 26151D   26193.25002315 -.00009907  00000+0 -25539-3 0  9991
2 69766  51.8784 194.6164 0005159 126.8333 175.3003 15.37435909  1305
KUIPER-00589            
1 69767U 26151E   26193.25002315 -.00009101  00000+0 -23414-3 0  9998
2 69767  51.8751 194.6258 0005417 132.3415 166.5301 15.37380220  2190
KUIPER-00598            
1 69768U 26151F   26193.25002315 -.00013712  00000+0 -38199-3 0  9998
2 69768  51.8636 194.7461 0010094 154.4206  83.7236 15.35371372  2104
