OBJECT_NAME,OBJECT_ID,EPOCH,MEAN_MOTION,ECCENTRICITY,INCLINATION,RA_OF_ASC_NODE,ARG_OF_PERICENTER,MEAN_ANOMALY,EPHEMERIS_TYPE,CLASSIFICATION_TYPE,NORAD_CAT_ID,ELEMENT_SET_NO,REV_AT_EPOCH,BSTAR,MEAN_MOTION_DOT,MEAN_MOTION_DDOT
STARLINK-38033,2026-150A,2026-07-12T06:00:02.000160,15.80871648,.0001399,97.2848,31.4432,88.1343,351.6875,0,U,69739,999,282,-.56109115E-3,-.106588E-2,0
STARLINK-38076,2026-150B,2026-07-12T06:00:02.000160,15.75260030,.00008815,97.2841,31.4231,78.2594,315.4066,0,U,69740,999,282,-.11503893E-2,-.168874E-2,0
STARLINK-38074,2026-150C,2026-07-12T06:00:02.000160,15.80878284,.00013235,97.2849,31.4497,80.3880,14.1079,0,U,69741,999,282,-.59777912E-3,-.113493E-2,0
STARLINK-38041,2026-150D,2026-07-12T06:00:02.000160,15.80879410,.00010821,97.2849,31.4518,107.7672,350.6757,0,U,69742,999,282,-.57231028E-3,-.108724E-2,0
STARLINK-38087,2026-150E,2026-07-12T06:00:02.000160,15.80880135,.00014745,97.2846,31.4527,89.8273,13.2613,0,U,69743,999,282,-.64126306E-3,-.121639E-2,0
STARLINK-38078,2026-150F,2026-07-12T06:00:02.000160,15.80881970,.00011785,97.2848,31.4543,82.8315,24.5283,0,U,69744,999,282,-.6475538E-3,-.122819E-2,0
STARLINK-38047,2026-150G,2026-07-12T06:00:02.000160,15.80875045,.00012098,97.2847,31.4560,84.9572,26.9578,0,U,69745,999,282,-.55016626E-3,-.104554E-2,0
STARLINK-38046,2026-150H,2026-07-12T06:00:02.000160,15.80885780,.00013524,97.2848,31.4618,92.4981,30.3389,0,U,69746,999,282,-.61856762E-3,-.117423E-2,0
STARLINK-38067,2026-150J,2026-07-12T06:00:02.000160,15.75262036,.00010018,97.2848,31.4524,91.6625,8.0037,0,U,69747,999,282,-.12690478E-2,-.185931E-2,0
STARLINK-37988,2026-150K,2026-07-12T06:00:02.000160,15.75215200,.00012908,97.2847,31.4559,81.6350,28.0451,0,U,69748,999,282,-.69682931E-3,-.102936E-2,0
STARLINK-37987,2026-150L,2026-07-12T06:00:02.000160,15.77415978,.00018395,97.2849,31.4654,77.2544,54.3104,0,U,69749,999,282,-.12831083E-1,-.1848154E-1,0
STARLINK-38037,2026-150M,2026-07-12T06:00:02.000160,15.80875094,.00013228,97.2846,31.4727,105.3792,43.4610,0,U,69750,999,282,-.50012846E-3,-.95161E-3,0
STARLINK-38049,2026-150N,2026-07-12T06:00:02.000160,15.80878739,.00012988,97.2845,31.4755,97.7347,56.8915,0,U,69751,999,282,-.60644832E-3,-.115117E-2,0
STARLINK-38029,2026-150P,2026-07-12T06:00:02.000160,15.80874204,.00012677,97.2845,31.4898,94.2870,93.0427,0,U,69752,999,282,-.56282275E-3,-.106923E-2,0
STARLINK-37965,2026-150Q,2026-07-12T06:00:02.000160,15.78318541,.00019108,97.2844,31.4864,84.8725,100.6790,0,U,69753,999,282,-.13122526E-1,-.1952395E-1,0
STARLINK-38048,2026-150R,2026-07-12T06:00:02.000160,15.80863449,.0001165,97.2843,31.4903,77.1270,112.3159,0,U,69754,999,282,-.42676181E-3,-.81305E-3,0
STARLINK-38006,2026-150S,2026-07-12T06:00:02.000160,15.80869492,.00009625,97.2840,31.4971,78.4692,126.5792,0,U,69755,999,282,-.50498901E-3,-.96045E-3,0
STARLINK-38036,2026-150T,2026-07-12T06:00:02.000160,15.80869050,.00012745,97.2843,31.5016,90.5571,122.1719,0,U,69756,999,282,-.47916919E-3,-.91194E-3,0
STARLINK-38058,2026-150U,2026-07-12T06:00:02.000160,15.80867281,.00011084,97.2842,31.5021,88.0499,126.1176,0,U,69757,999,282,-.41828969E-3,-.79722E-3,0
STARLINK-38066,2026-150V,2026-07-12T06:00:02.000160,15.80869709,.00014521,97.2844,31.5018,81.0319,133.9938,0,U,69758,999,282,-.57902518E-3,-.10994E-2,0
STARLINK-38035,2026-150W,2026-07-12T06:00:02.000160,15.80915056,.00011866,97.2844,31.5025,76.8488,138.8481,0,U,69759,999,282,-.82261159E-3,-.155638E-2,0
STARLINK-38056,2026-150X,2026-07-12T06:00:02.000160,15.80878051,.00013304,97.2839,31.5110,87.0769,148.3101,0,U,69760,999,282,-.55658074E-3,-.105772E-2,0
STARLINK-38069,2026-150Y,2026-07-12T06:00:02.000160,15.80871935,.00015098,97.2837,31.5200,88.7900,166.2664,0,U,69761,999,282,-.56029605E-3,-.106442E-2,0
STARLINK-38019,2026-150Z,2026-07-12T06:00:02.000160,15.75291132,.00013851,97.2838,31.5160,60.0440,185.5973,0,U,69762,999,282,-.23174357E-2,-.3341E-2,0
KUIPER-00258,2026-151A,2026-07-12T06:00:02.000160,15.35422020,.00115681,51.8671,194.7579,158.5495,74.6687,0,U,69763,999,192,-.76855289E-4,-.308E-4,0
KUIPER-00526,2026-151B,2026-07-12T06:00:02.000160,15.37285275,.00061042,51.8761,194.6321,129.1005,166.3472,0,U,69764,999,168,-.23116876E-3,-.8965E-4,0
KUIPER-00558,2026-151C,2026-07-12T06:00:02.000160,15.36776060,.00076476,51.8754,194.6671,140.6934,137.7826,0,U,69765,999,216,-.21913001E-3,-.8389E-4,0
KUIPER-00569,2026-151D,2026-07-12T06:00:02.000160,15.37435909,.00051593,51.8784,194.6164,126.8333,175.3003,0,U,69766,999,130,-.25539494E-3,-.9907E-4,0
KUIPER-00589,2026-151E,2026-07-12T06:00:02.000160,15.37380220,.00054176,51.8751,194.6258,132.3415,166.5301,0,U,69767,999,219,-.23413638E-3,-.9101E-4,0
KUIPER-00598,2026-151F,2026-07-12T06:00:02.000160,15.35371372,.00100947,51.8636,194.7461,154.4206,83.7236,0,U,69768,999,210,-.38198572E-3,-.13712E-3,0
